NOAA 15                 
1 25338U 98030A   24185.50822435  .00000357  00000+0  16559-3 0  9993
2 25338  98.5676 212.2937 0009063 277.8264  82.1888 14.26617911359767
DMSP 5D-3 F16 (USA 172) 
1 28054U 03048A   24185.57481524  .00000169  00000+0  11272-3 0  9991
2 28054  99.0201 192.1964 0007576  15.5331  92.8333 14.14045028 68592
NOAA 18                 
1 28654U 05018A   24185.49182834  .00000295  00000+0  18109-3 0  9995
2 28654  98.8743 262.3217 0014431  21.7068 338.4713 14.13244140985562
METEOSAT-9 (MSG-2)      
1 28912U 05049B   24184.83799469  .00000120  00000+0  00000+0 0  9995
2 28912   7.7217  60.7429 0001686   0.2584 207.6687  1.00271022 67886
EWS-G1 (GOES 13)        
1 29155U 06018A   24185.51241443 -.00000247  00000+0  00000+0 0  9993
2 29155   2.6684  85.1136 0077920 255.2842 289.9326  0.99066165 66325
DMSP 5D-3 F17 (USA 191) 
1 29522U 06050A   24185.52654498  .00000179  00000+0  11573-3 0  9990
2 29522  98.7432 195.7653 0009006 296.7111  63.3140 14.14495708911509
FENGYUN 3A              
1 32958U 08026A   24185.46084312  .00000229  00000+0  12983-3 0  9999
2 32958  98.6044 132.1103 0009393  32.4350 327.7401 14.19114448834266
NOAA 19                 
1 33591U 09005A   24185.51633104  .00000291  00000+0  18050-3 0  9996
2 33591  99.0463 241.4878 0012903 244.0184 115.9658 14.13039153793932
GOES 14                 
1 35491U 09033A   24185.06438348 -.00000065  00000+0  00000+0 0  9993
2 35491   0.3767 102.5785 0003627   3.6343  90.0165  1.00272104 54997
DMSP 5D-3 F18 (USA 210) 
1 35951U 09057A   24185.53721965  .00000399  00000+0  23209-3 0  9991
2 35951  98.8142 160.6676 0012199 117.1116 243.1302 14.14153810758675
EWS-G2 (GOES 15)        
1 36411U 10008A   24185.48329677  .00000040  00000+0  00000+0 0  9992
2 36411   0.3454  89.1487 0002815 107.2356 320.7574  1.00270382 52479
COMS 1                  
1 36744U 10032A   24184.84980693 -.00000346  00000+0  00000+0 0  9998
2 36744   2.9797  84.2060 0000691  36.1711 235.0393  1.00270348 51494
FENGYUN 3B              
1 37214U 10059A   24185.56550420  .00000194  00000+0  12476-3 0  9995
2 37214  99.0539 213.8859 0022954  48.4741 103.0129 14.14515086706565
SUOMI NPP               
1 37849U 11061A   24185.53592285  .00000128  00000+0  81532-4 0  9992
2 37849  98.7223 123.2710 0000872 132.7423 227.3827 14.19524557657180
FENGYUN 2F              
1 38049U 12002A   24185.53364396 -.00000363  00000+0  00000+0 0  9999
2 38049   5.6340  72.9768 0001719 126.1548  27.1570  1.00275186 45739
METEOSAT-10 (MSG-3)     
1 38552U 12035B   24185.25644889 -.00000009  00000+0  00000+0 0  9998
2 38552   3.0010  61.1176 0000399 281.9451  31.0426  1.00269608 44053
METOP-B                 
1 38771U 12049A   24185.50361140  .00000224  00000+0  12216-3 0  9994
2 38771  98.6271 242.3601 0001441  84.9196 275.2145 14.21447300611860
INSAT-3D                
1 39216U 13038B   24184.15674490 -.00000154  00000+0  00000+0 0  9990
2 39216   0.0538 276.0606 0002439 189.6080 313.5695  1.00272725 40132
FENGYUN 3C              
1 39260U 13052A   24185.55784708  .00000173  00000+0  10822-3 0  9991
2 39260  98.4283 184.2965 0009817 281.5897  78.4176 14.16224934557642
METEOR-M 2              
1 40069U 14037A   24185.50734210  .00000242  00000+0  13094-3 0  9993
2 40069  98.4365 179.0161 0004912 321.7140  38.3688 14.20988997517944
HIMAWARI-8              
1 40267U 14060A   24184.54557394 -.00000274  00000+0  00000+0 0  9993
2 40267   0.0132 252.4335 0001145 244.1819 121.5157  1.00272126 35697
FENGYUN 2G              
1 40367U 14090A   24185.52566951 -.00000303  00000+0  00000+0 0  9998
2 40367   3.8319  81.3592 0003391 116.9746  12.3836  1.00263035 34880
METEOSAT-11 (MSG-4)     
1 40732U 15034A   24185.11520910  .00000061  00000+0  00000+0 0  9993
2 40732   1.4230  69.4662 0000981 165.3561  97.5608  1.00267756 32853
ELEKTRO-L 2             
1 41105U 15074A   24184.89582354 -.00000120  00000+0  00000+0 0  9993
2 41105   4.8815  79.2899 0001193 148.9559   1.1606  1.00270483 31348
INSAT-3DR               
1 41752U 16054A   24184.62714198 -.00000076  00000+0  00000+0 0  9994
2 41752   0.1416  93.0389 0010527 173.9882 313.8802  1.00271647 28652
HIMAWARI-9              
1 41836U 16064A   24184.85743941 -.00000274  00000+0  00000+0 0  9991
2 41836   0.0415 214.3254 0000732 274.3692 242.0986  1.00270437 28049
GOES 16                 
1 41866U 16071A   24184.88370205 -.00000246  00000+0  00000+0 0  9993
2 41866   0.0814 251.5706 0000084 218.8274  53.9230  1.00271338 27949
FENGYUN 4A              
1 41882U 16077A   24185.48843109 -.00000200  00000+0  00000+0 0  9992
2 41882   0.4992  85.9083 0007936 344.3376 114.3745  1.00267328 27820
CYGFM05                 
1 41884U 16078A   24184.77030247  .00009694  00000+0  35328-3 0  9997
2 41884  34.9546 202.4005 0011638 333.2498  26.7616 15.27345923418464
CYGFM04                 
1 41885U 16078B   24184.68330449  .00009792  00000+0  34732-3 0  9992
2 41885  34.9386 186.8699 0008844 354.2499   5.8113 15.28255777418547
CYGFM02                 
1 41886U 16078C   24185.42321200  .00009678  00000+0  33951-3 0  9996
2 41886  34.9494 184.3960 0011370 350.6922   9.3581 15.28595108418814
CYGFM01                 
1 41887U 16078D   24185.40838186  .00008642  00000+0  31690-3 0  9999
2 41887  34.9455 202.2239 0011240 327.3373  32.6646 15.27165944418617
CYGFM08                 
1 41888U 16078E   24185.08940574  .00009783  00000+0  34856-3 0  9993
2 41888  34.9466 192.2725 0012170 349.1312  10.9139 15.28077183418654
CYGFM07                 
1 41890U 16078G   24185.32460708  .00009547  00000+0  33724-3 0  9990
2 41890  34.9468 182.1865 0008656 358.2019   1.8665 15.28397765418802
CYGFM03                 
1 41891U 16078H   24185.09917987  .00010220  00000+0  36177-3 0  9996
2 41891  34.9485 184.8221 0009481 341.1997  18.8367 15.28310401418753
FENGYUN 3D              
1 43010U 17072A   24185.51982033  .00000156  00000+0  95613-4 0  9995
2 43010  98.9113 140.2710 0000694 338.7850  21.3296 14.19365104343736
NOAA 20 (JPSS-1)        
1 43013U 17073A   24185.55317481  .00000107  00000+0  71522-4 0  9991
2 43013  98.7065 123.2014 0001630 132.9960 227.1353 14.19538669343220
GOES 17                 
1 43226U 18022A   24185.52591069 -.00000091  00000+0  00000+0 0  9996
2 43226   0.0116  77.2347 0000859  78.0970 211.3032  1.00271553 23281
FENGYUN 2H              
1 43491U 18050A   24185.48686469 -.00000127  00000+0  00000+0 0  9995
2 43491   1.1848  87.1815 0001562  52.7208  36.4347  1.00267776 22358
METOP-C                 
1 43689U 18087A   24185.47152185  .00000217  00000+0  11933-3 0  9996
2 43689  98.7227 244.5575 0002830  62.3800 297.7664 14.21483514293436
GEO-KOMPSAT-2A          
1 43823U 18100A   24185.54214269 -.00000344  00000+0  00000+0 0  9993
2 43823   0.0429 166.9275 0002223 288.4937 150.0484  1.00270678 20503
METEOR-M2 2             
1 44387U 19038A   24185.52326152  .00000063  00000+0  47381-4 0  9998
2 44387  98.8274 154.8119 0000219 331.1675  28.9491 14.23898400259719
ARKTIKA-M 1             
1 47719U 21016A   24185.20289555  .00000128  00000+0  00000+0 0  9993
2 47719  63.1388 149.9392 6947097 268.6677  17.8912  2.00606873 24477
FENGYUN 3E              
1 49008U 21062A   24185.55645954  .00000050  00000+0  44218-4 0  9992
2 49008  98.7319 186.6155 0001747  27.0897 333.0370 14.19761983155317
GOES 18                 
1 51850U 22021A   24184.94295260  .00000098  00000+0  00000+0 0  9997
2 51850   0.0405 168.1936 0000253 342.1559 333.5471  1.00270687  8648
NOAA 21 (JPSS-2)        
1 54234U 22150A   24185.44785884  .00000147  00000+0  90480-4 0  9992
2 54234  98.7519 123.1514 0001946  89.9194 270.2205 14.19533402 85289
METEOSAT-12 (MTG-I1)    
1 54743U 22170C   24185.11329461 -.00000007  00000+0  00000+0 0  9998
2 54743   0.5168  40.2926 0001928  64.5709 217.1859  1.00267680  5816
TIANMU-1 03             
1 55973U 23039A   24185.48658809  .00009338  00000+0  40150-3 0  9999
2 55973  97.4694 336.0110 0006265 118.2023 241.9847 15.22852355 71337
TIANMU-1 04             
1 55974U 23039B   24185.53525143  .00008969  00000+0  38454-3 0  9993
2 55974  97.4616 335.6044 0007391 115.6341 244.5660 15.22956200 71334
TIANMU-1 05             
1 55975U 23039C   24185.51938106  .00009098  00000+0  39131-3 0  9996
2 55975  97.4664 335.9252 0005717 132.9488 227.2229 15.22852017 71325
TIANMU-1 06             
1 55976U 23039D   24185.50193941  .00009597  00000+0  41003-3 0  9991
2 55976  97.4677 336.0310 0006264 131.9486 228.2285 15.23061781 71326
METEOR-M2 3             
1 57166U 23091A   24185.48819212  .00000050  00000+0  41083-4 0  9999
2 57166  98.7119 240.0153 0005146  85.5496 274.6270 14.23902224 52947
TIANMU-1 07             
1 57399U 23101A   24185.51717891  .00006750  00000+0  34098-3 0  9993
2 57399  97.3627 242.2129 0006556 124.6614 235.5238 15.17376942 52906
TIANMU-1 08             
1 57400U 23101B   24185.48643267  .00006425  00000+0  32448-3 0  9993
2 57400  97.3617 242.0539 0008750 130.8118 229.3876 15.17389527 52897
TIANMU-1 09             
1 57401U 23101C   24185.46951554  .00006211  00000+0  31390-3 0  9991
2 57401  97.3571 241.8702 0009227 127.4824 232.7250 15.17375000 52897
TIANMU-1 10             
1 57402U 23101D   24185.50185578  .00007190  00000+0  36284-3 0  9996
2 57402  97.3653 242.1933 0011368 127.3343 232.8928 15.17356650 52896
FENGYUN 3F              
1 57490U 23111A   24185.51001290  .00000138  00000+0  86036-4 0  9999
2 57490  98.7692 254.4909 0001799  73.6257 286.5117 14.19832611 47587
ARKTIKA-M 2             
1 58584U 23198A   24185.43361653  .00000152  00000+0  00000+0 0  9990
2 58584  63.2509 233.6903 6977751 269.8418  17.2775  2.00613432  3994
TIANMU-1 11             
1 58645U 23205A   24185.49699016  .00005978  00000+0  32037-3 0  9990
2 58645  97.4022 210.1664 0010879 357.3202   2.7970 15.15310651 28981
TIANMU-1 12             
1 58646U 23205B   24185.51210182  .00005634  00000+0  30190-3 0  9994
2 58646  97.4008 210.1102 0009160 351.0938   9.0130 15.15354489 28975
TIANMU-1 13             
1 58647U 23205C   24185.54510532  .00006309  00000+0  33840-3 0  9995
2 58647  97.4039 210.1420 0008526 333.1656  26.9135 15.15276706 28974
TIANMU-1 14             
1 58648U 23205D   24185.52905419  .00005775  00000+0  30994-3 0  9999
2 58648  97.3964 209.9751 0009312 336.6245  23.4563 15.15284953 28970
TIANMU-1 19             
1 58660U 23208A   24185.53620664  .00007268  00000+0  38886-3 0  9990
2 58660  97.4126 297.5206 0007938 312.8696  47.1869 15.15319484 28645
TIANMU-1 20             
1 58661U 23208B   24185.53120100  .00007292  00000+0  38140-3 0  9991
2 58661  97.4054 297.4934 0008864 324.0769  35.9867 15.16112096 28653
TIANMU-1 21             
1 58662U 23208C   24185.58048340  .00007478  00000+0  38113-3 0  9998
2 58662  97.4095 297.8303 0008462 324.3514  35.7153 15.17023782 28670
TIANMU-1 22             
1 58663U 23208D   24185.55291480  .00006162  00000+0  33066-3 0  9992
2 58663  97.4111 297.6092 0004413 345.3252  14.7852 15.15293353 28659
TIANMU-1 15             
1 58700U 24004A   24185.52759711  .00006107  00000+0  32786-3 0  9999
2 58700  97.4619   6.3311 0009770   4.8904 355.2422 15.15254737 27248
TIANMU-1 16             
1 58701U 24004B   24185.51011764  .00006456  00000+0  34599-3 0  9999
2 58701  97.4547   6.1793 0009918  11.0296 349.1152 15.15292267 27241
TIANMU-1 17             
1 58702U 24004C   24185.49529836  .00005741  00000+0  30846-3 0  9998
2 58702  97.4591   6.3027 0007651   8.4177 351.7182 15.15266069 27235
TIANMU-1 18             
1 58703U 24004D   24185.47823357  .00005372  00000+0  28869-3 0  9994
2 58703  97.4605   6.3617 0006649 359.5535   0.5690 15.15291459 27235
INSAT-3DS               
1 58990U 24033A   24171.63670715 -.00000142  00000+0  00000+0 0  9999
2 58990   0.0159 349.8168 0010402 105.1251 125.6022  1.00268037   992
METEOR-M2 4             
1 59051U 24039A   24185.52672601  .00000058  00000+0  45268-4 0  9998
2 59051  98.5983 147.0184 0008275  78.9476 281.2632 14.22235944 17819
